STARLINK-36388          
1 68037U 26040Y   26077.50003471 -.00771132  00000+0 -42816-2 0  9993
2 68037  97.2775  26.4024 0001576  97.5246 251.5351 15.81371442  3790
STARLINK-36895          
1 68038U 26040Z   26077.50003471 -.01090999  00000+0 -61953-2 0  9993
2 68038  97.2742  26.3936 0001475 103.3608 232.6436 15.81699942  3840
STARLINK-36373          
1 68039U 26040AA  26077.50003471 -.01304257  00000+0 -73687-2 0  9996
2 68039  97.2740  26.3917 0001469  91.5714 240.0468 15.81855335  3799
STARLINK-36711          
1 68040U 26041A   26077.50003471 -.00132375  00000+0 -87091-3 0  9993
2 68040  53.1593  18.1436 0001241  79.4549 137.1652 15.75291241  3796
STARLINK-36825          
1 68041U 26041B   26077.44727947  .00197206  00000+0  97680-3 0  9995
2 68041  53.1594  18.2342 0001832  61.6339 298.4869 15.80944262  2605
STARLINK-36925          
1 68042U 26041C   26077.39876117  .00205268  00000+0  13072-2 0  9994
2 68042  53.1596  18.6500 0000935  91.7220 268.3908 15.75305241  2594
STARLINK-36902          
1 68043U 26041D   26077.38330126  .00233536  00000+0  11494-2 0  9994
2 68043  53.1598  18.5476 0000999  53.3205 306.7910 15.80978321  2596
STARLINK-36966          
1 68044U 26041E   26077.50003471 -.00107970  00000+0 -70780-3 0  9997
2 68044  53.1594  18.0938 0001065 100.6244 139.8755 15.75283102  3790
STARLINK-36864          
1 68045U 26041F   26077.50003471 -.00036321  00000+0 -23403-3 0  9999
2 68045  53.1595  18.0900 0001394  83.6025 158.8220 15.75214291  3794
STARLINK-36321          
1 68046U 26041G   26077.31708267  .00230935  00000+0  11376-2 0  9994
2 68046  53.1596  18.8439 0001024 138.8641 221.2459 15.80968218  2584
STARLINK-36181          
1 68047U 26041H   26077.44426826  .00253166  00000+0  12424-2 0  9993
2 68047  53.1599  18.2143 0001451 166.1689 193.9374 15.80987991  2607
STARLINK-36318          
1 68048U 26041J   26077.50003471 -.00111081  00000+0 -72868-3 0  9998
2 68048  53.1601  18.0408 0000903  94.2407 172.0189 15.75280715  3791
