CCSDS_OMM_VERS = 2.0
CREATION_DATE  = 
ORIGINATOR     = 

OBJECT_NAME    = STARLINK-36388
OBJECT_ID      = 2026-040Y
CENTER_NAME    = EARTH
REF_FRAME      = TEME
TIME_SYSTEM    = UTC
MEAN_ELEMENT_THEORY = SGP/SGP4

EPOCH          = 2026-03-18T12:00:02.998944
MEAN_MOTION    = 15.81371442
ECCENTRICITY   = .0001576
INCLINATION    = 97.2775
RA_OF_ASC_NODE = 26.4024
ARG_OF_PERICENTER = 97.5246
MEAN_ANOMALY   = 251.5351

EPHEMERIS_TYPE = 0
CLASSIFICATION_TYPE = U
NORAD_CAT_ID   = 68037
ELEMENT_SET_NO = 999
REV_AT_EPOCH   = 379
BSTAR          = -.42816E-2
MEAN_MOTION_DOT = -.771132E-2
MEAN_MOTION_DDOT = 0

CCSDS_OMM_VERS = 2.0
CREATION_DATE  = 
ORIGINATOR     = 

OBJECT_NAME    = STARLINK-36895
OBJECT_ID      = 2026-040Z
CENTER_NAME    = EARTH
REF_FRAME      = TEME
TIME_SYSTEM    = UTC
MEAN_ELEMENT_THEORY = SGP/SGP4

EPOCH          = 2026-03-18T12:00:02.998944
MEAN_MOTION    = 15.81699942
ECCENTRICITY   = .0001475
INCLINATION    = 97.2742
RA_OF_ASC_NODE = 26.3936
ARG_OF_PERICENTER = 103.3608
MEAN_ANOMALY   = 232.6436

EPHEMERIS_TYPE = 0
CLASSIFICATION_TYPE = U
NORAD_CAT_ID   = 68038
ELEMENT_SET_NO = 999
REV_AT_EPOCH   = 384
BSTAR          = -.61953E-2
MEAN_MOTION_DOT = -.1090999E-1
MEAN_MOTION_DDOT = 0

CCSDS_OMM_VERS = 2.0
CREATION_DATE  = 
ORIGINATOR     = 

OBJECT_NAME    = STARLINK-36373
OBJECT_ID      = 2026-040AA
CENTER_NAME    = EARTH
REF_FRAME      = TEME
TIME_SYSTEM    = UTC
MEAN_ELEMENT_THEORY = SGP/SGP4

EPOCH          = 2026-03-18T12:00:02.998944
MEAN_MOTION    = 15.81855335
ECCENTRICITY   = .0001469
INCLINATION    = 97.2740
RA_OF_ASC_NODE = 26.3917
ARG_OF_PERICENTER = 91.5714
MEAN_ANOMALY   = 240.0468

EPHEMERIS_TYPE = 0
CLASSIFICATION_TYPE = U
NORAD_CAT_ID   = 68039
ELEMENT_SET_NO = 999
REV_AT_EPOCH   = 379
BSTAR          = -.73687E-2
MEAN_MOTION_DOT = -.1304257E-1
MEAN_MOTION_DDOT = 0

CCSDS_OMM_VERS = 2.0
CREATION_DATE  = 
ORIGINATOR     = 

OBJECT_NAME    = STARLINK-36711
OBJECT_ID      = 2026-041A
CENTER_NAME    = EARTH
REF_FRAME      = TEME
TIME_SYSTEM    = UTC
MEAN_ELEMENT_THEORY = SGP/SGP4

EPOCH          = 2026-03-18T12:00:02.998944
MEAN_MOTION    = 15.75291241
ECCENTRICITY   = .0001241
INCLINATION    = 53.1593
RA_OF_ASC_NODE = 18.1436
ARG_OF_PERICENTER = 79.4549
MEAN_ANOMALY   = 137.1652

EPHEMERIS_TYPE = 0
CLASSIFICATION_TYPE = U
NORAD_CAT_ID   = 68040
ELEMENT_SET_NO = 999
REV_AT_EPOCH   = 379
BSTAR          = -.87091E-3
MEAN_MOTION_DOT = -.132375E-2
MEAN_MOTION_DDOT = 0

CCSDS_OMM_VERS = 2.0
CREATION_DATE  = 
ORIGINATOR     = 

OBJECT_NAME    = STARLINK-36825
OBJECT_ID      = 2026-041B
CENTER_NAME    = EARTH
REF_FRAME      = TEME
TIME_SYSTEM    = UTC
MEAN_ELEMENT_THEORY = SGP/SGP4

EPOCH          = 2026-03-18T10:44:04.946208
MEAN_MOTION    = 15.80944262
ECCENTRICITY   = .0001832
INCLINATION    = 53.1594
RA_OF_ASC_NODE = 18.2342
ARG_OF_PERICENTER = 61.6339
MEAN_ANOMALY   = 298.4869

EPHEMERIS_TYPE = 0
CLASSIFICATION_TYPE = U
NORAD_CAT_ID   = 68041
ELEMENT_SET_NO = 999
REV_AT_EPOCH   = 260
BSTAR          = .9768E-3
MEAN_MOTION_DOT = .197206E-2
MEAN_MOTION_DDOT = 0

CCSDS_OMM_VERS = 2.0
CREATION_DATE  = 
ORIGINATOR     = 

OBJECT_NAME    = STARLINK-36925
OBJECT_ID      = 2026-041C
CENTER_NAME    = EARTH
REF_FRAME      = TEME
TIME_SYSTEM    = UTC
MEAN_ELEMENT_THEORY = SGP/SGP4

EPOCH          = 2026-03-18T09:34:12.965088
MEAN_MOTION    = 15.75305241
ECCENTRICITY   = .0000935
INCLINATION    = 53.1596
RA_OF_ASC_NODE = 18.6500
ARG_OF_PERICENTER = 91.7220
MEAN_ANOMALY   = 268.3908

EPHEMERIS_TYPE = 0
CLASSIFICATION_TYPE = U
NORAD_CAT_ID   = 68042
ELEMENT_SET_NO = 999
REV_AT_EPOCH   = 259
BSTAR          = .13072E-2
MEAN_MOTION_DOT = .205268E-2
MEAN_MOTION_DDOT = 0

CCSDS_OMM_VERS = 2.0
CREATION_DATE  = 
ORIGINATOR     = 

OBJECT_NAME    = STARLINK-36902
OBJECT_ID      = 2026-041D
CENTER_NAME    = EARTH
REF_FRAME      = TEME
TIME_SYSTEM    = UTC
MEAN_ELEMENT_THEORY = SGP/SGP4

EPOCH          = 2026-03-18T09:11:57.228864
MEAN_MOTION    = 15.80978321
ECCENTRICITY   = .0000999
INCLINATION    = 53.1598
RA_OF_ASC_NODE = 18.5476
ARG_OF_PERICENTER = 53.3205
MEAN_ANOMALY   = 306.7910

EPHEMERIS_TYPE = 0
CLASSIFICATION_TYPE = U
NORAD_CAT_ID   = 68043
ELEMENT_SET_NO = 999
REV_AT_EPOCH   = 259
BSTAR          = .11494E-2
MEAN_MOTION_DOT = .233536E-2
MEAN_MOTION_DDOT = 0

CCSDS_OMM_VERS = 2.0
CREATION_DATE  = 
ORIGINATOR     = 

OBJECT_NAME    = STARLINK-36966
OBJECT_ID      = 2026-041E
CENTER_NAME    = EARTH
REF_FRAME      = TEME
TIME_SYSTEM    = UTC
MEAN_ELEMENT_THEORY = SGP/SGP4

EPOCH          = 2026-03-18T12:00:02.998944
MEAN_MOTION    = 15.75283102
ECCENTRICITY   = .0001065
INCLINATION    = 53.1594
RA_OF_ASC_NODE = 18.0938
ARG_OF_PERICENTER = 100.6244
MEAN_ANOMALY   = 139.8755

EPHEMERIS_TYPE = 0
CLASSIFICATION_TYPE = U
NORAD_CAT_ID   = 68044
ELEMENT_SET_NO = 999
REV_AT_EPOCH   = 379
BSTAR          = -.7078E-3
MEAN_MOTION_DOT = -.10797E-2
MEAN_MOTION_DDOT = 0

CCSDS_OMM_VERS = 2.0
CREATION_DATE  = 
ORIGINATOR     = 

OBJECT_NAME    = STARLINK-36864
OBJECT_ID      = 2026-041F
CENTER_NAME    = EARTH
REF_FRAME      = TEME
TIME_SYSTEM    = UTC
MEAN_ELEMENT_THEORY = SGP/SGP4

EPOCH          = 2026-03-18T12:00:02.998944
MEAN_MOTION    = 15.75214291
ECCENTRICITY   = .0001394
INCLINATION    = 53.1595
RA_OF_ASC_NODE = 18.0900
ARG_OF_PERICENTER = 83.6025
MEAN_ANOMALY   = 158.8220

EPHEMERIS_TYPE = 0
CLASSIFICATION_TYPE = U
NORAD_CAT_ID   = 68045
ELEMENT_SET_NO = 999
REV_AT_EPOCH   = 379
BSTAR          = -.23403E-3
MEAN_MOTION_DOT = -.36321E-3
MEAN_MOTION_DDOT = 0

CCSDS_OMM_VERS = 2.0
CREATION_DATE  = 
ORIGINATOR     = 

OBJECT_NAME    = STARLINK-36321
OBJECT_ID      = 2026-041G
CENTER_NAME    = EARTH
REF_FRAME      = TEME
TIME_SYSTEM    = UTC
MEAN_ELEMENT_THEORY = SGP/SGP4

EPOCH          = 2026-03-18T07:36:35.942688
MEAN_MOTION    = 15.80968218
ECCENTRICITY   = .0001024
INCLINATION    = 53.1596
RA_OF_ASC_NODE = 18.8439
ARG_OF_PERICENTER = 138.8641
MEAN_ANOMALY   = 221.2459

EPHEMERIS_TYPE = 0
CLASSIFICATION_TYPE = U
NORAD_CAT_ID   = 68046
ELEMENT_SET_NO = 999
REV_AT_EPOCH   = 258
BSTAR          = .11376E-2
MEAN_MOTION_DOT = .230935E-2
MEAN_MOTION_DDOT = 0

CCSDS_OMM_VERS = 2.0
CREATION_DATE  = 
ORIGINATOR     = 

OBJECT_NAME    = STARLINK-36181
OBJECT_ID      = 2026-041H
CENTER_NAME    = EARTH
REF_FRAME      = TEME
TIME_SYSTEM    = UTC
MEAN_ELEMENT_THEORY = SGP/SGP4

EPOCH          = 2026-03-18T10:39:44.777664
MEAN_MOTION    = 15.80987991
ECCENTRICITY   = .0001451
INCLINATION    = 53.1599
RA_OF_ASC_NODE = 18.2143
ARG_OF_PERICENTER = 166.1689
MEAN_ANOMALY   = 193.9374

EPHEMERIS_TYPE = 0
CLASSIFICATION_TYPE = U
NORAD_CAT_ID   = 68047
ELEMENT_SET_NO = 999
REV_AT_EPOCH   = 260
BSTAR          = .12424E-2
MEAN_MOTION_DOT = .253166E-2
MEAN_MOTION_DDOT = 0

CCSDS_OMM_VERS = 2.0
CREATION_DATE  = 
ORIGINATOR     = 

OBJECT_NAME    = STARLINK-36318
OBJECT_ID      = 2026-041J
CENTER_NAME    = EARTH
REF_FRAME      = TEME
TIME_SYSTEM    = UTC
MEAN_ELEMENT_THEORY = SGP/SGP4

EPOCH          = 2026-03-18T12:00:02.998944
MEAN_MOTION    = 15.75280715
ECCENTRICITY   = .0000903
INCLINATION    = 53.1601
RA_OF_ASC_NODE = 18.0408
ARG_OF_PERICENTER = 94.2407
MEAN_ANOMALY   = 172.0189

EPHEMERIS_TYPE = 0
CLASSIFICATION_TYPE = U
NORAD_CAT_ID   = 68048
ELEMENT_SET_NO = 999
REV_AT_EPOCH   = 379
BSTAR          = -.72868E-3
MEAN_MOTION_DOT = -.111081E-2
MEAN_MOTION_DDOT = 0

